[{"OBJECT_NAME":"STARLINK-1557","OBJECT_ID":"2020-055H","EPOCH":"2026-03-10T00:00:02.999808","MEAN_MOTION":15.2035016,"ECCENTRICITY":0.0001718,"INCLINATION":53.1122,"RA_OF_ASC_NODE":124.7429,"ARG_OF_PERICENTER":94.4179,"MEAN_ANOMALY":143.9555,"EPHEMERIS_TYPE":0,"CLASSIFICATION_TYPE":"U","NORAD_CAT_ID":46034,"ELEMENT_SET_NO":999,"REV_AT_EPOCH":578,"BSTAR":0.0055116646,"MEAN_MOTION_DOT":0.00123185,"MEAN_MOTION_DDOT":0},{"OBJECT_NAME":"MULE 4T","OBJECT_ID":"2025-313AQ","EPOCH":"2026-03-09T21:24:34.594848","MEAN_MOTION":15.22526761,"ECCENTRICITY":0.00094122,"INCLINATION":97.4001,"RA_OF_ASC_NODE":145.2527,"ARG_OF_PERICENTER":352.2509,"MEAN_ANOMALY":7.858,"EPHEMERIS_TYPE":0,"CLASSIFICATION_TYPE":"U","NORAD_CAT_ID":67286,"ELEMENT_SET_NO":999,"REV_AT_EPOCH":1085,"BSTAR":0.00051041148,"MEAN_MOTION_DOT":0.00011788,"MEAN_MOTION_DDOT":0}]
